start=new Date('2023-04-24T00:00:00.000Z').valueOf();
sats=[{"DECAY_DATE":null,"OBJECT_ID":"2021-017AT","APOAPSIS":"547.753","OBJECT_TYPE":"PAYLOAD","RA_OF_ASC_NODE":"256.2605","SEMIMAJOR_AXIS":"6925.223","ARG_OF_PERICENTER":"55.9029","MEAN_MOTION_DOT":"0.00011369","GP_ID":"230628916","CLASSIFICATION_TYPE":"U","BSTAR":"0.00078006000000","ECCENTRICITY":"0.00009610","CENTER_NAME":"EARTH","NORAD_CAT_ID":"47763","MEAN_MOTION":"15.06440984","PERIOD":"95.590","OBJECT_NAME":"STARLINK-2181","FILE":"3892688","EPHEMERIS_TYPE":"0","MEAN_MOTION_DDOT":"0.0000000000000","PERIAPSIS":"546.422","MEAN_ANOMALY":"304.2051","SITE":"AFETR","TLE_LINE1":"1 47763U 21017AT  23113.35068196  .00011369  00000-0  78006-3 0  9990","INCLINATION":"53.0551","TIME_SYSTEM":"UTC","REV_AT_EPOCH":"11919","MEAN_ELEMENT_THEORY":"SGP4","LAUNCH_DATE":"2021-03-04","COUNTRY_CODE":"US","RCS_SIZE":"LARGE","ELEMENT_SET_NO":"999","TLE_LINE2":"2 47763  53.0551 256.2605 0000961  55.9029 304.2051 15.06440984119197","EPOCH":"2023-04-23T08:24:58.921344","REF_FRAME":"TEME"},{"MEAN_MOTION":"15.06471931","PERIOD":"95.588","FILE":"3892831","OBJECT_NAME":"STARLINK-2182","EPHEMERIS_TYPE":"0","MEAN_MOTION_DDOT":"0.0000000000000","PERIAPSIS":"546.323","MEAN_ANOMALY":"288.7597","SITE":"AFETR","TLE_LINE1":"1 47764U 21017AU  23113.85103303  .00036989  00000-0  24843-2 0  9990","INCLINATION":"53.0540","OBJECT_ID":"2021-017AU","DECAY_DATE":null,"APOAPSIS":"547.663","OBJECT_TYPE":"PAYLOAD","RA_OF_ASC_NODE":"264.0143","SEMIMAJOR_AXIS":"6925.128","ARG_OF_PERICENTER":"71.3497","MEAN_MOTION_DOT":"0.00036989","GP_ID":"230659356","CLASSIFICATION_TYPE":"U","BSTAR":"0.00248430000000","CENTER_NAME":"EARTH","ECCENTRICITY":"0.00009680","NORAD_CAT_ID":"47764","LAUNCH_DATE":"2021-03-04","COUNTRY_CODE":"US","RCS_SIZE":"LARGE","ELEMENT_SET_NO":"999","EPOCH":"2023-04-23T20:25:29.253792","TLE_LINE2":"2 47764  53.0540 264.0143 0000968  71.3497 288.7597 15.06471931119184","REF_FRAME":"TEME","REV_AT_EPOCH":"11918","TIME_SYSTEM":"UTC","MEAN_ELEMENT_THEORY":"SGP4"},{"ARG_OF_PERICENTER":"88.5763","MEAN_MOTION_DOT":"0.00012709","CLASSIFICATION_TYPE":"U","GP_ID":"230629417","BSTAR":"0.00087034000000","NORAD_CAT_ID":"47766","ECCENTRICITY":"0.00013170","CENTER_NAME":"EARTH","DECAY_DATE":null,"OBJECT_ID":"2021-017AW","OBJECT_TYPE":"PAYLOAD","APOAPSIS":"548.094","RA_OF_ASC_NODE":"268.0954","SEMIMAJOR_AXIS":"6925.317","OBJECT_NAME":"STARLINK-2184","FILE":"3892688","EPHEMERIS_TYPE":"0","MEAN_MOTION_DDOT":"0.0000000000000","PERIAPSIS":"546.270","TLE_LINE1":"1 47766U 21017AW  23112.93966690  .00012709  00000-0  87034-3 0  9992","INCLINATION":"53.0537","SITE":"AFETR","MEAN_ANOMALY":"271.5377","MEAN_MOTION":"15.06410184","PERIOD":"95.591","MEAN_ELEMENT_THEORY":"SGP4","REV_AT_EPOCH":"11898","TIME_SYSTEM":"UTC","TLE_LINE2":"2 47766  53.0537 268.0954 0001317  88.5763 271.5377 15.06410184118987","EPOCH":"2023-04-22T22:33:07.220160","ELEMENT_SET_NO":"999","REF_FRAME":"TEME","LAUNCH_DATE":"2021-03-04","COUNTRY_CODE":"US","RCS_SIZE":"LARGE"},{"MEAN_ELEMENT_THEORY":"SGP4","TIME_SYSTEM":"UTC","REV_AT_EPOCH":"11940","ELEMENT_SET_NO":"999","EPOCH":"2023-04-23T21:28:31.307520","TLE_LINE2":"2 47767  53.0526 248.8154 0001533  79.4754 280.6407 15.06481144119400","REF_FRAME":"TEME","COUNTRY_CODE":"US","LAUNCH_DATE":"2021-03-04","RCS_SIZE":"LARGE","GP_ID":"230658359","CLASSIFICATION_TYPE":"U","ARG_OF_PERICENTER":"79.4754","MEAN_MOTION_DOT":"0.00036879","ECCENTRICITY":"0.00015330","CENTER_NAME":"EARTH","NORAD_CAT_ID":"47767","BSTAR":"0.00247640000000","APOAPSIS":"548.026","OBJECT_TYPE":"PAYLOAD","OBJECT_ID":"2021-017AX","DECAY_DATE":null,"SEMIMAJOR_AXIS":"6925.100","RA_OF_ASC_NODE":"248.8154","MEAN_MOTION_DDOT":"0.0000000000000","FILE":"3892831","OBJECT_NAME":"STARLINK-2185","EPHEMERIS_TYPE":"0","MEAN_ANOMALY":"280.6407","TLE_LINE1":"1 47767U 21017AX  23113.89480680  .00036879  00000-0  24764-2 0  9993","SITE":"AFETR","INCLINATION":"53.0526","PERIAPSIS":"545.903","PERIOD":"95.587","MEAN_MOTION":"15.06481144"},{"BSTAR":"0.00174670000000","ECCENTRICITY":"0.00009430","CENTER_NAME":"EARTH","NORAD_CAT_ID":"47768","MEAN_MOTION_DOT":"0.00025865","ARG_OF_PERICENTER":"85.3598","GP_ID":"230605071","CLASSIFICATION_TYPE":"U","RA_OF_ASC_NODE":"265.8168","SEMIMAJOR_AXIS":"6925.204","DECAY_DATE":null,"OBJECT_ID":"2021-017AY","APOAPSIS":"547.722","OBJECT_TYPE":"PAYLOAD","PERIAPSIS":"546.416","MEAN_ANOMALY":"274.7499","INCLINATION":"53.0543","TLE_LINE1":"1 47768U 21017AY  23113.53777987  .00025865  00000-0  17467-2 0  9999","SITE":"AFETR","OBJECT_NAME":"STARLINK-2189","FILE":"3892588","EPHEMERIS_TYPE":"0","MEAN_MOTION_DDOT":"0.0000000000000","MEAN_MOTION":"15.06447244","PERIOD":"95.589","MEAN_ELEMENT_THEORY":"SGP4","REV_AT_EPOCH":"11845","TIME_SYSTEM":"UTC","REF_FRAME":"TEME","ELEMENT_SET_NO":"999","TLE_LINE2":"2 47768  53.0543 265.8168 0000943  85.3598 274.7499 15.06447244118452","EPOCH":"2023-04-23T12:54:24.180768","RCS_SIZE":"LARGE","COUNTRY_CODE":"US","LAUNCH_DATE":"2021-03-04"},{"MEAN_ELEMENT_THEORY":"SGP4","TIME_SYSTEM":"UTC","REV_AT_EPOCH":"11966","EPOCH":"2023-04-23T19:29:04.119072","TLE_LINE2":"2 47769  53.0543 229.1894 0001445  74.7914 285.3235 15.06503910119667","ELEMENT_SET_NO":"999","REF_FRAME":"TEME","COUNTRY_CODE":"US","LAUNCH_DATE":"2021-03-04","RCS_SIZE":"LARGE","CLASSIFICATION_TYPE":"U","GP_ID":"230659857","ARG_OF_PERICENTER":"74.7914","MEAN_MOTION_DOT":"0.00044743","NORAD_CAT_ID":"47769","ECCENTRICITY":"0.00014450","CENTER_NAME":"EARTH","BSTAR":"0.00299530000000","OBJECT_TYPE":"PAYLOAD","APOAPSIS":"547.896","OBJECT_ID":"2021-017AZ","DECAY_DATE":null,"SEMIMAJOR_AXIS":"6925.030","RA_OF_ASC_NODE":"229.1894","MEAN_MOTION_DDOT":"0.0000000000000","EPHEMERIS_TYPE":"0","FILE":"3892831","OBJECT_NAME":"STARLINK-2192","TLE_LINE1":"1 47769U 21017AZ  23113.81185323  .00044743  00000-0  29953-2 0  9997","INCLINATION":"53.0543","SITE":"AFETR","MEAN_ANOMALY":"285.3235","PERIAPSIS":"545.894","PERIOD":"95.586","MEAN_MOTION":"15.06503910"},{"RCS_SIZE":"LARGE","COUNTRY_CODE":"US","LAUNCH_DATE":"2021-03-04","REF_FRAME":"TEME","ELEMENT_SET_NO":"999","TLE_LINE2":"2 47770  53.0539 244.4596 0001517  95.3552 264.7610 15.06466298119429","EPOCH":"2023-04-23T18:04:50.523456","REV_AT_EPOCH":"11942","TIME_SYSTEM":"UTC","MEAN_ELEMENT_THEORY":"SGP4","MEAN_MOTION":"15.06466298","PERIOD":"95.588","PERIAPSIS":"545.960","MEAN_ANOMALY":"264.7610","TLE_LINE1":"1 47770U 21017BA  23113.75336254  .00031365  00000-0  21114-2 0  9990","SITE":"AFETR","INCLINATION":"53.0539","FILE":"3892831","OBJECT_NAME":"STARLINK-2193","EPHEMERIS_TYPE":"0","MEAN_MOTION_DDOT":"0.0000000000000","RA_OF_ASC_NODE":"244.4596","SEMIMAJOR_AXIS":"6925.145","OBJECT_ID":"2021-017BA","DECAY_DATE":null,"APOAPSIS":"548.061","OBJECT_TYPE":"PAYLOAD","BSTAR":"0.00211140000000","CENTER_NAME":"EARTH","ECCENTRICITY":"0.00015170","NORAD_CAT_ID":"47770","MEAN_MOTION_DOT":"0.00031365","ARG_OF_PERICENTER":"95.3552","GP_ID":"230658109","CLASSIFICATION_TYPE":"U"},{"NORAD_CAT_ID":"47771","CENTER_NAME":"EARTH","ECCENTRICITY":"0.00011530","BSTAR":"0.00307540000000","CLASSIFICATION_TYPE":"U","GP_ID":"230658860","MEAN_MOTION_DOT":"0.00045940","ARG_OF_PERICENTER":"72.0923","SEMIMAJOR_AXIS":"6925.068","RA_OF_ASC_NODE":"244.4029","APOAPSIS":"547.731","OBJECT_TYPE":"PAYLOAD","OBJECT_ID":"2021-017BB","DECAY_DATE":null,"SITE":"AFETR","TLE_LINE1":"1 47771U 21017BB  23113.76440229  .00045940  00000-0  30754-2 0  9994","INCLINATION":"53.0534","MEAN_ANOMALY":"288.0192","PERIAPSIS":"546.134","MEAN_MOTION_DDOT":"0.0000000000000","FILE":"3892831","OBJECT_NAME":"STARLINK-2194","EPHEMERIS_TYPE":"0","PERIOD":"95.586","MEAN_MOTION":"15.06491679","MEAN_ELEMENT_THEORY":"SGP4","REV_AT_EPOCH":"11943","TIME_SYSTEM":"UTC","REF_FRAME":"TEME","EPOCH":"2023-04-23T18:20:44.357856","TLE_LINE2":"2 47771  53.0534 244.4029 0001153  72.0923 288.0192 15.06491679119432","ELEMENT_SET_NO":"999","RCS_SIZE":"LARGE","COUNTRY_CODE":"US","LAUNCH_DATE":"2021-03-04"},{"REF_FRAME":"TEME","ELEMENT_SET_NO":"999","TLE_LINE2":"2 47772  53.0505 259.4565 0001120  71.6496 288.4614 15.06476746119190","EPOCH":"2023-04-23T18:05:29.487264","RCS_SIZE":"LARGE","LAUNCH_DATE":"2021-03-04","COUNTRY_CODE":"US","MEAN_ELEMENT_THEORY":"SGP4","REV_AT_EPOCH":"11919","TIME_SYSTEM":"UTC","MEAN_ANOMALY":"288.4614","TLE_LINE1":"1 47772U 21017BC  23113.75381351  .00038652  00000-0  25942-2 0  9999","SITE":"AFETR","INCLINATION":"53.0505","PERIAPSIS":"546.203","MEAN_MOTION_DDOT":"0.0000000000000","FILE":"3892831","EPHEMERIS_TYPE":"0","OBJECT_NAME":"STARLINK-2195","PERIOD":"95.587","MEAN_MOTION":"15.06476746","CENTER_NAME":"EARTH","ECCENTRICITY":"0.00011200","NORAD_CAT_ID":"47772","BSTAR":"0.00259420000000","GP_ID":"230659111","CLASSIFICATION_TYPE":"U","ARG_OF_PERICENTER":"71.6496","MEAN_MOTION_DOT":"0.00038652","SEMIMAJOR_AXIS":"6925.113","RA_OF_ASC_NODE":"259.4565","OBJECT_TYPE":"PAYLOAD","APOAPSIS":"547.754","DECAY_DATE":null,"OBJECT_ID":"2021-017BC"},{"MEAN_ELEMENT_THEORY":"SGP4","TIME_SYSTEM":"UTC","REV_AT_EPOCH":"11918","REF_FRAME":"TEME","ELEMENT_SET_NO":"999","EPOCH":"2023-04-23T18:00:11.162880","TLE_LINE2":"2 47773  53.0539 259.4648 0001562  79.9687 280.1478 15.06466401119186","RCS_SIZE":"LARGE","LAUNCH_DATE":"2021-03-04","COUNTRY_CODE":"US","ECCENTRICITY":"0.00015620","CENTER_NAME":"EARTH","NORAD_CAT_ID":"47773","BSTAR":"0.00196180000000","GP_ID":"230659357","CLASSIFICATION_TYPE":"U","ARG_OF_PERICENTER":"79.9687","MEAN_MOTION_DOT":"0.00029113","SEMIMAJOR_AXIS":"6925.145","RA_OF_ASC_NODE":"259.4648","APOAPSIS":"548.092","OBJECT_TYPE":"PAYLOAD","OBJECT_ID":"2021-017BD","DECAY_DATE":null,"MEAN_ANOMALY":"280.1478","TLE_LINE1":"1 47773U 21017BD  23113.75012920  .00029113  00000-0  19618-2 0  9998","INCLINATION":"53.0539","SITE":"AFETR","PERIAPSIS":"545.928","MEAN_MOTION_DDOT":"0.0000000000000","FILE":"3892831","EPHEMERIS_TYPE":"0","OBJECT_NAME":"STARLINK-2196","PERIOD":"95.588","MEAN_MOTION":"15.06466401"}];
